{
  "norad_id": 53531,
  "name": "STARLINK-4487",
  "history": [
    {
      "epoch": "2026-03-28T21:53:07.202688Z",
      "apogee_km": 540.7551058026074,
      "perigee_km": 538.7220805232882,
      "latitude_deg": 4.676665179006638e-05,
      "longitude_deg": -166.7752110933373,
      "height_km": 540.5996649557394,
      "semi_major_axis_km": 6917.875593162948,
      "eccentricity": 0.00014694,
      "inclination_deg": 53.2184,
      "raan_deg": 347.8303,
      "arg_perigee_deg": 88.0503,
      "mean_anomaly_deg": 272.0658,
      "mean_motion_rev_day": 15.08841569
    },
    {
      "epoch": "2026-03-28T23:28:30.254880Z",
      "apogee_km": 540.7287680928202,
      "perigee_km": 538.7336549006232,
      "latitude_deg": 5.5917925943324124e-05,
      "longitude_deg": 169.0160567168126,
      "height_km": 540.5960103635446,
      "semi_major_axis_km": 6917.868211496721,
      "eccentricity": 0.0001442,
      "inclination_deg": 53.2189,
      "raan_deg": 347.5329,
      "arg_perigee_deg": 88.2222,
      "mean_anomaly_deg": 271.8936,
      "mean_motion_rev_day": 15.08843984
    }
  ]
}